RASSVET 1-5
1 59780U 24092H   25350.97270429  .00000185  00000-0  85824-4 0  9996
2 59780  98.6531 105.4316 0012680  30.4070 329.7847 14.31742628 82822
RASSVET 1-6
1 59781U 24092J   25350.97138450  .00000190  00000-0  87902-4 0  9999
2 59781  98.6526 105.4348 0012580  30.7022 329.4894 14.31743495 82823
SITRO-AIS-55
1 59809U 24092K   25350.79208653  .00014083  00000-0  50099-3 0  9995
2 59809  97.6369 112.5143 0009568  78.1275 282.1037 15.29052814 87294
MESAT-1
1 60209U 24125G   25350.54164090  .00028208  00000-0  56697-3 0  9991
2 60209  97.2522 200.9166 0014413 163.6606 196.5112 15.46490288 81192
ISTSAT-1
1 60238U 24128D   25350.90948480  .00006586  00000-0  41858-3 0  9997
2 60238  61.9876 129.2742 0053911  96.0794 264.6447 15.08618939 78939
IONOSFERA-M 01
1 61735U 24199A   25350.97703404  .00000055  00000-0  44174-4 0  9990
2 61735  98.7402 220.7927 0000757  15.8637 344.2565 14.22714978101794
IONOSFERA-M 02
1 61736U 24199B   25350.94134672  .00000051  00000-0  42673-4 0  9991
2 61736  98.7407 220.6697 0001741 104.9292 255.2078 14.22717101104912
SITRO-AIS-16
1 61737U 24199C   25351.01827050  .00002080  00000-0  18839-3 0  9990
2 61737  97.3344 196.6717 0006306 334.9118  25.1798 14.96358842104565
SITRO-AIS-15
1 61738U 24199D   25351.00499230  .00002954  00000-0  26536-3 0  9998
2 61738  97.3349 196.6900 0005883 338.1663  21.9308 14.96388690104560
SITRO-AIS-21
1 61739U 24199E   25350.99024219  .00002100  00000-0  19999-3 0  9995
2 61739  97.3345 195.6862 0011893 322.1558  37.8827 14.94337760104536
SITRO-AIS-22
1 61740U 24199F   25350.96333057  .00002292  00000-0  21558-3 0  9993
2 61740  97.3344 195.7297 0012138 322.8062  37.2318 14.94733687104683
SITRO-AIS-24
1 61741U 24199G   25350.97102701  .00003099  00000-0  28929-3 0  9990
2 61741  97.3343 195.7261 0012077 324.3781  35.6634 14.94804634104652
SITRO-AIS-23
1 61742U 24199H   25351.02103557  .00002056  00000-0  19378-3 0  9998
2 61742  97.3347 195.8056 0011983 324.0495  35.9919 14.94764631104543
SITRO-AIS-13
1 61743U 24199J   25350.95740762  .00002202  00000-0  19788-3 0  9993
2 61743  97.3340 196.7464 0005993 336.0836  24.0107 14.96614038104721
CSTP-2.11
1 61744U 24199K   25350.80856678  .00018904  00000-0  45160-3 0  9991
2 61744  97.3256 219.2842 0008651 210.1251 149.9499 15.41517673106176
POLYTECH UNIVERSE-5 (RS70S)
1 61745U 24199L   25350.92905701  .00027098  00000-0  56874-3 0  9995
2 61745  97.3232 220.1930 0005952 212.4501 147.6383 15.45327575109392
COLIBRI-S (RS67S)
1 61746U 24199M   25350.91371069  .00016596  00000-0  42484-3 0  9992
2 61746  97.3261 218.8469 0008678 213.5946 146.4750 15.39442551109298
POLYTECH UNIVERSE-4 (RS71S)
1 61747U 24199N   25350.77824288  .00014742  00000-0  39137-3 0  9995
2 61747  97.3263 218.4218 0009117 212.5405 147.5279 15.38344183109252
SITRO-AIS-44
1 61748U 24199P   25350.89932814  .00030168  00000-0  58945-3 0  9992
2 61748  97.3216 220.6477 0005454 209.4687 150.6256 15.47399913109420
VIZARD-ION (RS68S)
1 61749U 24199Q   25350.90224034  .00021449  00000-0  48790-3 0  9992
2 61749  97.3259 219.7747 0007928 207.8887 152.1937 15.42971626109356
MTUSI-1
1 61750U 24199R   25350.88872962  .00022439  00000-0  51589-3 0  9990
2 61750  97.3225 219.3325 0007625 220.9538 139.1138 15.42645195109337
VLADIVOSTOK-1
1 61751U 24199S   25350.88997905  .00008484  00000-0  26880-3 0  9996
2 61751  97.3249 216.8222 0008676 235.3127 124.7299 15.32939710109171
SITRO-AIS-14
1 61752U 24199T   25350.99164544  .00003363  00000-0  30104-3 0  9999
2 61752  97.3339 196.7051 0005662 338.3749  21.7234 14.96439687107860
HORS-3 (RS81S)
1 61753U 24199U   25350.89991131  .00021472  00000-0  49116-3 0  9993
2 61753  97.3233 219.4602 0006681 217.6711 142.4070 15.42813399109341
HORS-4 (RS82S)
1 61754U 24199V   25350.89501023  .00025112  00000-0  54039-3 0  9996
2 61754  97.3215 219.8924 0006712 216.1876 143.8920 15.44600042109377
SITRO-AIS-43
1 61755U 24199W   25350.81551946  .00030497  00000-0  59277-3 0  9999
2 61755  97.3212 220.6076 0005418 208.3547 151.7409 15.47548791109413
SITRO-AIS-42
1 61756U 24199X   25350.80318236  .00032452  00000-0  62797-3 0  9996
2 61756  97.3217 220.6289 0005421 209.5920 150.5024 15.47665833109414
HORIZON (RS59S)
1 61757U 24199Y   25350.93143285  .00052281  00000-0  80125-3 0  9998
2 61757  97.3219 222.0862 0006030 190.3473 169.7657 15.54151599109519
SITRO-AIS-20
1 61758U 24199Z   25350.93803641  .00003138  00000-0  27943-3 0  9994
2 61758  97.3345 196.7595 0005630 342.8645  17.2387 14.96688110107862
SITRO-AIS-19
1 61759U 24199AA  25351.00557340  .00003085  00000-0  27493-3 0  9997
2 61759  97.3344 196.8234 0005616 344.4204  15.6845 14.96672312107875
SITRO-AIS-41
1 61760U 24199AB  25350.80894635  .00030249  00000-0  59706-3 0  9991
2 61760  97.3221 220.4891 0005542 209.6249 150.4688 15.47103956109407
2024-199AC
1 61761U 24199AC  25350.73357675  .00023426  00000-0  51839-3 0  9990
2 61761  97.3216 219.6558 0005699 215.0223 145.0651 15.43791465109345
ARCTICSAT-1 (RS74S)
1 61762U 24199AD  25350.93168259  .00046290  00000-0  75109-3 0  9991
2 61762  97.3228 221.9301 0006304 186.9958 173.1209 15.52593290109501
SIT-HSE
1 61763U 24199AE  25350.79232213  .00015881  00000-0  35859-3 0  9998
2 61763  97.3238 220.0711 0005388 231.0068 129.0701 15.43271364109370
SIT-2086
1 61764U 24199AF  25350.90312358  .00026739  00000-0  60847-3 0  9990
2 61764  97.3231 220.2174 0006645 207.3356 152.7543 15.42925164106234
MORDOVIA-IOT (RS50S)
1 61765U 24199AG  25350.79122713  .00137116  00000-0  10956-2 0  9999
2 61765  97.3122 224.5859 0004553 152.3230 207.8276 15.70676014106522
RUZAEVKA-390 (RS44S)
1 61766U 24199AH  25350.78604870  .00079596  00000-0  88847-3 0  9990
2 61766  97.3173 223.5387 0004624 168.5846 191.5518 15.62518132106452
2024-199AJ (? AHMAT-2)
1 61767U 24199AJ  25350.66004792  .00517599  10692-3  15612-2 0  9995
2 61767  97.3032 226.1897 0005150 124.2209 235.9554 15.92163877106626
HOD-HOD
1 61768U 24199AK  25350.89705383  .00017854  00000-0  43295-3 0  9992
2 61768  97.3234 219.3484 0004891 222.9304 137.1562 15.41102904106181
KOSAR
1 61769U 24199AL  25350.89422553  .00020498  00000-0  47023-3 0  9999
2 61769  97.3230 219.7827 0004560 221.3489 138.7414 15.42749444106217
SITRO-AIS-48
1 61771U 24199AN  25350.78044751  .00025022  00000-0  56047-3 0  9994
2 61771  97.3200 219.0292 0008091 232.5338 127.5175 15.43399229106163
HYPERVIEW-1G (RS66S)
1 61772U 24199AP  25350.94443101  .00036081  00000-0  68478-3 0  9993
2 61772  97.3211 220.4327 0008098 217.6859 142.3826 15.48184745106269
SITRO-AIS-47
1 61773U 24199AQ  25350.81157532  .00025285  00000-0  56066-3 0  9994
2 61773  97.3201 219.1491 0007984 232.7570 127.2951 15.43700020106173
SITRO-AIS-46
1 61774U 24199AR  25350.80114802  .00027305  00000-0  59230-3 0  9998
2 61774  97.3197 219.2929 0007938 233.3090 126.7429 15.44336975106188
CSTP-2.2
1 61775U 24199AS  25350.78867112  .00013179  00000-0  35317-3 0  9999
2 61775  97.3248 217.8584 0015682 214.6333 145.3892 15.37997737106074
SITRO-AIS-40
1 61776U 24199AT  25350.79971407  .00026904  00000-0  58181-3 0  9998
2 61776  97.3197 219.2986 0007994 233.1377 126.9140 15.44429930109337
CSTP-2.1
1 61777U 24199AU  25350.90773896  .00013334  00000-0  35333-3 0  9991
2 61777  97.3247 217.9955 0014690 215.1410 144.8868 15.38357497106091
SITRO-AIS-39
1 61778U 24199AV  25350.81671800  .00024345  00000-0  54819-3 0  9998
2 61778  97.3199 218.9831 0008291 233.9523 126.0957 15.43246063106166
ALTAIR (RS65S)
1 61779U 24199AW  25350.98337884  .00008959  00000-0  28398-3 0  9994
2 61779  97.3264 216.7340 0012422 236.8793 123.1257 15.32869726109162
SITRO-AIS-37
1 61780U 24199AX  25350.77660404  .00025315  00000-0  56166-3 0  9999
2 61780  97.3208 219.0814 0008449 234.2004 125.8459 15.43678087106165
ASRTU-1 (RS64S/BJ2CR/AO-123)
1 61781U 24199AY  25350.78758301  .00009157  00000-0  29776-3 0  9998
2 61781  97.3253 216.1932 0012910 239.2655 120.7316 15.32037416105966
TUSUR GO (RS78S)
1 61782U 24199AZ  25350.80501905  .00055181  00000-0  86579-3 0  9990
2 61782  97.3177 221.0424 0006872 212.0023 148.0814 15.53483255106293
ZIMSAT-2 (Z2AS)
1 61783U 24199BA  25350.92635179  .00209017  00000-0  13694-2 0  9991
2 61783  97.3079 224.1033 0004423 167.3776 192.7601 15.75161406109661
SAMSAT-IONOSPHERE (RS75S)
1 61784U 24199BB  25350.89859006  .00024278  00000-0  54742-3 0  9999
2 61784  97.3228 219.1693 0009951 225.4954 134.5482 15.43189496109327
RTU MIREA-1 (RS51S)
1 61785U 24199BC  25350.91253554  .00027329  00000-0  59202-3 0  9995
2 61785  97.3222 219.4445 0009564 222.4902 137.5607 15.44361560106199
SITRO-AIS-38
1 61786U 24199BD  25350.79968992  .00013466  00000-0  32483-3 0  9990
2 61786  97.3213 218.8830 0010361 232.5317 127.4988 15.41281156106155
2024-199BE (? SWSU-60)
1 61787U 24199BE  25350.81229595  .00008378  00000-0  26846-3 0  9995
2 61787  97.3259 216.3382 0012831 238.3958 121.6032 15.32536120109120
SITRO-AIS-45
1 61788U 24199BF  25350.79459844  .00025793  00000-0  57752-3 0  9995
2 61788  97.3197 218.9891 0008320 234.1963 125.8513 15.43402718106149
SITRO-AIS-17
1 61789U 24199BG  25350.99744845  .00003495  00000-0  31067-3 0  9992
2 61789  97.3344 196.8534 0005749 348.0410  12.0675 14.96699337104771
SITRO-AIS-18
1 61790U 24199BH  25351.00566874  .00003034  00000-0  27059-3 0  9996
2 61790  97.3345 196.8259 0005710 346.1624  13.9441 14.96661696104770
HADES-R (SO-124)
1 62690U 25009CK  25350.74474094  .00136700  00000-0  16532-2 0  9999
2 62690  97.3871  73.5241 0001089 266.8265  93.2867 15.60239285 51401
OTP-2
1 63235U 25052AB  25350.65444068  .00003852  00000-0  17635-3 0  9998
2 63235  97.4071 240.9362 0008512  83.6079 276.6126 15.21062065 42097
HADES-ICM (SO-125)
1 63492U 25052BN  25350.98598504  .00053201  00000-0  13277-2 0  9994
2 63492  97.4084 244.5484 0011679  63.9853 296.2594 15.39938644 42350
